{
    "links": {
        "self": "http://www.neowsapp.com/rest/v1/neo/3648876?api_key=iIulBulltgU6a56xZRHN4H3l9WmuAYTsLGpBGhQ2"
    },
    "id": "3648876",
    "neo_reference_id": "3648876",
    "name": "(2013 TH6)",
    "designation": "2013 TH6",
    "nasa_jpl_url": "http://ssd.jpl.nasa.gov/sbdb.cgi?sstr=3648876",
    "absolute_magnitude_h": 25.8,
    "estimated_diameter": {
        "kilometers": {
            "estimated_diameter_min": 0.0183888672,
            "estimated_diameter_max": 0.0411187571
        },
        "meters": {
            "estimated_diameter_min": 18.388867207,
            "estimated_diameter_max": 41.1187571041
        },
        "miles": {
            "estimated_diameter_min": 0.0114263088,
            "estimated_diameter_max": 0.0255500032
        },
        "feet": {
            "estimated_diameter_min": 60.3309310875,
            "estimated_diameter_max": 134.9040630575
        }
    },
    "is_potentially_hazardous_asteroid": false,
    "close_approach_data": [
        {
            "close_approach_date": "2010-10-24",
            "close_approach_date_full": "2010-Oct-24 20:45",
            "epoch_date_close_approach": 1287953100000,
            "relative_velocity": {
                "kilometers_per_second": "24.2224693177",
                "kilometers_per_hour": "87200.889543563",
                "miles_per_hour": "54183.2416166656"
            },
            "miss_distance": {
                "astronomical": "0.414719294",
                "lunar": "161.325805366",
                "kilometers": "62041123.03030378",
                "miles": "38550566.237520964"
            },
            "orbiting_body": "Earth"
        },
        {
            "close_approach_date": "2013-09-27",
            "close_approach_date_full": "2013-Sep-27 21:33",
            "epoch_date_close_approach": 1380317580000,
            "relative_velocity": {
                "kilometers_per_second": "13.0067844723",
                "kilometers_per_hour": "46824.4241002357",
                "miles_per_hour": "29094.8761860604"
            },
            "miss_distance": {
                "astronomical": "0.0175975931",
                "lunar": "6.8454637159",
                "kilometers": "2632562.444886697",
                "miles": "1635798.4502705386"
            },
            "orbiting_body": "Earth"
        }
    ],
    "orbital_data": {
        "orbit_id": "7",
        "orbit_determination_date": "2019-07-08 05:58:43",
        "first_observation_date": "2013-09-30",
        "last_observation_date": "2013-10-12",
        "data_arc_in_days": 12,
        "observations_used": 23,
        "orbit_uncertainty": "8",
        "minimum_orbit_intersection": ".00787979",
        "jupiter_tisserand_invariant": "3.559",
        "epoch_osculation": "2456574.5",
        "eccentricity": ".5554427195429358",
        "semi_major_axis": "2.057377735632768",
        "inclination": "10.0926391438126",
        "ascending_node_longitude": "5.152766538266506",
        "orbital_period": "1077.877683747292",
        "perihelion_distance": ".9146222510258163",
        "perihelion_argument": "315.8474450012642",
        "aphelion_distance": "3.20013322023972",
        "perihelion_time": "2456530.708130435352",
        "mean_anomaly": "14.6260315813064",
        "mean_motion": ".3339896589643115",
        "equinox": "J2000",
        "orbit_class": {
            "orbit_class_type": "APO",
            "orbit_class_description": "Near-Earth asteroid orbits which cross the Earth’s orbit similar to that of 1862 Apollo",
            "orbit_class_range": "a (semi-major axis) > 1.0 AU; q (perihelion) < 1.017 AU"
        }
    },
    "is_sentry_object": false
}